ONEWEB-0309             
1 49095U 21075W   23304.18132989 -.00000040  00000+0 -13661-3 0  9990
2 49095  87.9240 196.6670 0001328  86.9486 273.1797 13.17652186108149
ONEWEB-0310             
1 49096U 21075X   23304.18141788  .00000407  00000+0  10948-2 0  9997
2 49096  87.9054 181.5639 0001353  74.5909 285.5369 13.12444265110262
ONEWEB-0311             
1 49097U 21075Y   23303.42829764 -.00000036  00000+0 -12614-3 0  9994
2 49097  87.9181 196.8187 0001989  88.6506 271.4854 13.17647976107106
ONEWEB-0312             
1 49098U 21075Z   23304.20031016  .00000090  00000+0  19772-3 0  9997
2 49098  87.9258 196.6855 0001477  93.2721 266.8579 13.17651483108162
ONEWEB-0313             
1 49099U 21075AA  23304.17922145  .00000136  00000+0  31713-3 0  9996
2 49099  87.9244 196.7022 0001582  87.9509 272.1803 13.17648862108174
ONEWEB-0314             
1 49100U 21075AB  23303.94508039  .00000070  00000+0  14801-3 0  9991
2 49100  87.9250 196.7111 0001542  95.9641 264.1666 13.17647554107113
ONEWEB-0315             
1 49101U 21075AC  23304.15357689 -.00027488  00000+0 -77065-1 0  9992
2 49101  87.9045 181.5773 0001189  62.1217 298.0032 13.12091754110245
ONEWEB-0316             
1 49102U 21075AD  23303.86595711  .00000028  00000+0  37364-4 0  9990
2 49102  87.9177 166.5034 0001882  86.5789 273.5558 13.18684659110642
